start=new Date('2022-09-09T00:00:00.000Z').valueOf();
sats=[{"GP_ID":"212048361","MEAN_MOTION_DOT":"0.00002710","SITE":"AFETR","ARG_OF_PERICENTER":"61.9601","OBJECT_TYPE":"PAYLOAD","OBJECT_NAME":"STARLINK-1069","MEAN_MOTION":"15.06387945","LAUNCH_DATE":"2020-01-07","TIME_SYSTEM":"UTC","ECCENTRICITY":"0.00013420","SEMIMAJOR_AXIS":"6925.386","BSTAR":"0.00020083000000","EPHEMERIS_TYPE":"0","ELEMENT_SET_NO":"999","RA_OF_ASC_NODE":"284.7561","INCLINATION":"53.0536","CLASSIFICATION_TYPE":"U","CENTER_NAME":"EARTH","RCS_SIZE":"LARGE","FILE":"3563723","DECAY_DATE":null,"MEAN_MOTION_DDOT":"0.0000000000000","REV_AT_EPOCH":"14769","COUNTRY_CODE":"US","MEAN_ANOMALY":"298.1524","OBJECT_ID":"2020-001AT","PERIOD":"95.593","APOAPSIS":"548.180","NORAD_CAT_ID":"44955","TLE_LINE2":"2 44955  53.0536 284.7561 0001342  61.9601 298.1524 15.06387945147693","REF_FRAME":"TEME","TLE_LINE1":"1 44955U 20001AT  22251.47280286  .00002710  00000-0  20083-3 0  9995","PERIAPSIS":"546.321","EPOCH":"2022-09-08T11:20:50.167104","MEAN_ELEMENT_THEORY":"SGP4"},{"MEAN_MOTION_DOT":"0.00003505","GP_ID":"212067319","OBJECT_TYPE":"PAYLOAD","SITE":"AFETR","MEAN_MOTION":"15.06382305","OBJECT_NAME":"STARLINK-1070","ARG_OF_PERICENTER":"88.4886","LAUNCH_DATE":"2020-01-07","TIME_SYSTEM":"UTC","ECCENTRICITY":"0.00013230","SEMIMAJOR_AXIS":"6925.403","EPHEMERIS_TYPE":"0","ELEMENT_SET_NO":"999","BSTAR":"0.00025419000000","RA_OF_ASC_NODE":"284.4647","INCLINATION":"53.0538","CLASSIFICATION_TYPE":"U","CENTER_NAME":"EARTH","RCS_SIZE":"LARGE","FILE":"3564286","DECAY_DATE":null,"MEAN_MOTION_DDOT":"0.0000000000000","REV_AT_EPOCH":"14776","COUNTRY_CODE":"US","OBJECT_ID":"2020-001AU","MEAN_ANOMALY":"271.6254","PERIOD":"95.593","APOAPSIS":"548.184","NORAD_CAT_ID":"44956","TLE_LINE2":"2 44956  53.0538 284.4647 0001323  88.4886 271.6254 15.06382305147765","REF_FRAME":"TEME","TLE_LINE1":"1 44956U 20001AU  22251.53453370  .00003505  00000-0  25419-3 0  9990","EPOCH":"2022-09-08T12:49:43.711680","PERIAPSIS":"546.352","MEAN_ELEMENT_THEORY":"SGP4"},{"CLASSIFICATION_TYPE":"U","CENTER_NAME":"EARTH","RCS_SIZE":"LARGE","FILE":"3564431","SEMIMAJOR_AXIS":"6925.378","EPHEMERIS_TYPE":"0","BSTAR":"0.00022568000000","ELEMENT_SET_NO":"999","RA_OF_ASC_NODE":"283.1568","INCLINATION":"53.0536","LAUNCH_DATE":"2020-01-07","TIME_SYSTEM":"UTC","ECCENTRICITY":"0.00013730","MEAN_MOTION_DOT":"0.00003081","GP_ID":"212090812","ARG_OF_PERICENTER":"81.9315","SITE":"AFETR","OBJECT_TYPE":"PAYLOAD","OBJECT_NAME":"STARLINK-1074","MEAN_MOTION":"15.06390520","MEAN_ELEMENT_THEORY":"SGP4","REF_FRAME":"TEME","PERIAPSIS":"546.292","TLE_LINE1":"1 44957U 20001AV  22251.82572073  .00003081  00000-0  22568-3 0  9996","EPOCH":"2022-09-08T19:49:02.271072","MEAN_ANOMALY":"278.1830","OBJECT_ID":"2020-001AV","PERIOD":"95.593","APOAPSIS":"548.193","NORAD_CAT_ID":"44957","TLE_LINE2":"2 44957  53.0536 283.1568 0001373  81.9315 278.1830 15.06390520147807","MEAN_MOTION_DDOT":"0.0000000000000","DECAY_DATE":null,"REV_AT_EPOCH":"14780","COUNTRY_CODE":"US"},{"ECCENTRICITY":"0.00015030","LAUNCH_DATE":"2020-01-07","TIME_SYSTEM":"UTC","SITE":"AFETR","MEAN_MOTION":"15.06397522","OBJECT_TYPE":"PAYLOAD","OBJECT_NAME":"STARLINK-1076","ARG_OF_PERICENTER":"56.5537","GP_ID":"212089570","MEAN_MOTION_DOT":"0.00001502","RCS_SIZE":"LARGE","FILE":"3564431","CENTER_NAME":"EARTH","CLASSIFICATION_TYPE":"U","BSTAR":"0.00011969000000","EPHEMERIS_TYPE":"0","ELEMENT_SET_NO":"999","INCLINATION":"53.0544","RA_OF_ASC_NODE":"284.2885","SEMIMAJOR_AXIS":"6925.356","APOAPSIS":"548.262","PERIOD":"95.592","TLE_LINE2":"2 44959  53.0544 284.2885 0001503  56.5537 303.5596 15.06397522147767","NORAD_CAT_ID":"44959","MEAN_ANOMALY":"303.5596","OBJECT_ID":"2020-001AX","REV_AT_EPOCH":"14776","COUNTRY_CODE":"US","DECAY_DATE":null,"MEAN_MOTION_DDOT":"0.0000000000000","MEAN_ELEMENT_THEORY":"SGP4","EPOCH":"2022-09-08T13:49:26.020704","TLE_LINE1":"1 44959U 20001AX  22251.57599561  .00001502  00000-0  11969-3 0  9990","PERIAPSIS":"546.180","REF_FRAME":"TEME"},{"CLASSIFICATION_TYPE":"U","CENTER_NAME":"EARTH","FILE":"3564431","RCS_SIZE":"LARGE","SEMIMAJOR_AXIS":"6925.314","RA_OF_ASC_NODE":"283.3767","INCLINATION":"53.0531","EPHEMERIS_TYPE":"0","BSTAR":"0.00056194000000","ELEMENT_SET_NO":"999","TIME_SYSTEM":"UTC","LAUNCH_DATE":"2020-01-07","ECCENTRICITY":"0.00013000","MEAN_MOTION_DOT":"0.00008101","GP_ID":"212089820","SITE":"AFETR","OBJECT_TYPE":"PAYLOAD","ARG_OF_PERICENTER":"87.6566","MEAN_MOTION":"15.06411363","OBJECT_NAME":"STARLINK-1080","MEAN_ELEMENT_THEORY":"SGP4","REF_FRAME":"TEME","EPOCH":"2022-09-08T18:46:41.565792","TLE_LINE1":"1 44961U 20001AZ  22251.78242553  .00008101  00000-0  56194-3 0  9993","PERIAPSIS":"546.278","MEAN_ANOMALY":"272.4572","OBJECT_ID":"2020-001AZ","NORAD_CAT_ID":"44961","TLE_LINE2":"2 44961  53.0531 283.3767 0001300  87.6566 272.4572 15.06411363147800","PERIOD":"95.591","APOAPSIS":"548.079","MEAN_MOTION_DDOT":"0.0000000000000","DECAY_DATE":null,"COUNTRY_CODE":"US","REV_AT_EPOCH":"14780"},{"RA_OF_ASC_NODE":"264.6582","INCLINATION":"52.9961","EPHEMERIS_TYPE":"0","ELEMENT_SET_NO":"999","BSTAR":"0.00098755000000","SEMIMAJOR_AXIS":"6889.421","FILE":"3564431","RCS_SIZE":"LARGE","CLASSIFICATION_TYPE":"U","CENTER_NAME":"EARTH","SITE":"AFETR","OBJECT_TYPE":"PAYLOAD","ARG_OF_PERICENTER":"51.3945","OBJECT_NAME":"STARLINK-1085","MEAN_MOTION":"15.18198830","GP_ID":"212090570","MEAN_MOTION_DOT":"0.00020184","ECCENTRICITY":"0.00018100","TIME_SYSTEM":"UTC","LAUNCH_DATE":"2020-01-07","EPOCH":"2022-09-08T17:40:04.015776","TLE_LINE1":"1 44963U 20001BB  22251.73615759  .00020184  00000-0  98755-3 0  9996","PERIAPSIS":"510.039","REF_FRAME":"TEME","MEAN_ELEMENT_THEORY":"SGP4","COUNTRY_CODE":"US","REV_AT_EPOCH":"14875","DECAY_DATE":null,"MEAN_MOTION_DDOT":"0.0000000000000","NORAD_CAT_ID":"44963","TLE_LINE2":"2 44963  52.9961 264.6582 0001810  51.3945 308.7211 15.18198830148751","PERIOD":"94.849","APOAPSIS":"512.533","MEAN_ANOMALY":"308.7211","OBJECT_ID":"2020-001BB"},{"SITE":"AFETR","OBJECT_TYPE":"PAYLOAD","OBJECT_NAME":"STARLINK-1086","MEAN_MOTION":"15.06394428","ARG_OF_PERICENTER":"81.1963","MEAN_MOTION_DOT":"0.00002858","GP_ID":"212090312","ECCENTRICITY":"0.00012100","LAUNCH_DATE":"2020-01-07","TIME_SYSTEM":"UTC","ELEMENT_SET_NO":"999","EPHEMERIS_TYPE":"0","BSTAR":"0.00021073000000","RA_OF_ASC_NODE":"283.2267","INCLINATION":"53.0547","SEMIMAJOR_AXIS":"6925.366","RCS_SIZE":"LARGE","FILE":"3564431","CLASSIFICATION_TYPE":"U","CENTER_NAME":"EARTH","REV_AT_EPOCH":"14780","COUNTRY_CODE":"US","DECAY_DATE":null,"MEAN_MOTION_DDOT":"0.0000000000000","PERIOD":"95.592","APOAPSIS":"548.069","NORAD_CAT_ID":"44964","TLE_LINE2":"2 44964  53.0547 283.2267 0001210  81.1963 278.9163 15.06394428147803","MEAN_ANOMALY":"278.9163","OBJECT_ID":"2020-001BC","PERIAPSIS":"546.393","TLE_LINE1":"1 44964U 20001BC  22251.81190519  .00002858  00000-0  21073-3 0  9995","EPOCH":"2022-09-08T19:29:08.608416","REF_FRAME":"TEME","MEAN_ELEMENT_THEORY":"SGP4"},{"MEAN_ELEMENT_THEORY":"SGP4","REF_FRAME":"TEME","PERIAPSIS":"546.248","TLE_LINE1":"1 44966U 20001BE  22251.83403946  .00005572  00000-0  39275-3 0  9999","EPOCH":"2022-09-08T20:01:01.009344","MEAN_ANOMALY":"277.6539","OBJECT_ID":"2020-001BE","PERIOD":"95.592","APOAPSIS":"548.212","NORAD_CAT_ID":"44966","TLE_LINE2":"2 44966  53.0531 283.1508 0001418  82.4611 277.6539 15.06394784147807","DECAY_DATE":null,"MEAN_MOTION_DDOT":"0.0000000000000","REV_AT_EPOCH":"14780","COUNTRY_CODE":"US","CLASSIFICATION_TYPE":"U","CENTER_NAME":"EARTH","RCS_SIZE":"LARGE","FILE":"3564431","SEMIMAJOR_AXIS":"6925.365","ELEMENT_SET_NO":"999","EPHEMERIS_TYPE":"0","BSTAR":"0.00039275000000","RA_OF_ASC_NODE":"283.1508","INCLINATION":"53.0531","LAUNCH_DATE":"2020-01-07","TIME_SYSTEM":"UTC","ECCENTRICITY":"0.00014180","GP_ID":"212089071","MEAN_MOTION_DOT":"0.00005572","SITE":"AFETR","OBJECT_TYPE":"PAYLOAD","ARG_OF_PERICENTER":"82.4611","OBJECT_NAME":"STARLINK-1088","MEAN_MOTION":"15.06394784"},{"LAUNCH_DATE":"2020-01-07","TIME_SYSTEM":"UTC","ECCENTRICITY":"0.00014680","MEAN_MOTION_DOT":"0.00001979","GP_ID":"212089320","ARG_OF_PERICENTER":"71.9132","SITE":"AFETR","OBJECT_TYPE":"PAYLOAD","MEAN_MOTION":"15.06390445","OBJECT_NAME":"STARLINK-1089","CLASSIFICATION_TYPE":"U","CENTER_NAME":"EARTH","RCS_SIZE":"LARGE","FILE":"3564431","SEMIMAJOR_AXIS":"6925.378","ELEMENT_SET_NO":"999","EPHEMERIS_TYPE":"0","BSTAR":"0.00015177000000","RA_OF_ASC_NODE":"283.3313","INCLINATION":"53.0529","MEAN_ANOMALY":"288.2016","OBJECT_ID":"2020-001BF","PERIOD":"95.593","APOAPSIS":"548.259","NORAD_CAT_ID":"44967","TLE_LINE2":"2 44967  53.0529 283.3313 0001468  71.9132 288.2016 15.06390445147805","MEAN_MOTION_DDOT":"0.0000000000000","DECAY_DATE":null,"REV_AT_EPOCH":"14780","COUNTRY_CODE":"US","MEAN_ELEMENT_THEORY":"SGP4","REF_FRAME":"TEME","PERIAPSIS":"546.226","TLE_LINE1":"1 44967U 20001BF  22251.78979590  .00001979  00000-0  15177-3 0  9999","EPOCH":"2022-09-08T18:57:18.365760"},{"EPOCH":"2022-09-08T18:52:00.558048","TLE_LINE1":"1 44968U 20001BG  22251.78611757  .00007678  00000-0  53368-3 0  9994","PERIAPSIS":"546.190","REF_FRAME":"TEME","MEAN_ELEMENT_THEORY":"SGP4","REV_AT_EPOCH":"14780","COUNTRY_CODE":"US","DECAY_DATE":null,"MEAN_MOTION_DDOT":"0.0000000000000","PERIOD":"95.592","APOAPSIS":"548.205","NORAD_CAT_ID":"44968","TLE_LINE2":"2 44968  53.0529 283.3547 0001455  84.4845 275.6310 15.06405333147801","MEAN_ANOMALY":"275.6310","OBJECT_ID":"2020-001BG","ELEMENT_SET_NO":"999","EPHEMERIS_TYPE":"0","BSTAR":"0.00053368000000","RA_OF_ASC_NODE":"283.3547","INCLINATION":"53.0529","SEMIMAJOR_AXIS":"6925.332","RCS_SIZE":"LARGE","FILE":"3564431","CLASSIFICATION_TYPE":"U","CENTER_NAME":"EARTH","SITE":"AFETR","OBJECT_TYPE":"PAYLOAD","OBJECT_NAME":"STARLINK-1090","ARG_OF_PERICENTER":"84.4845","MEAN_MOTION":"15.06405333","GP_ID":"212090070","MEAN_MOTION_DOT":"0.00007678","ECCENTRICITY":"0.00014550","LAUNCH_DATE":"2020-01-07","TIME_SYSTEM":"UTC"}];
